Store URL,Name,Phone,Street_Address,Locality,Business_years
https://www.yellowpages.com//pittsburgh-pa/mip/alternative-bedding-460338104?lid=1002086392964,Alternative Bedding,(412) 690-0145,3404 Saw Mill Run Blvd,"Pittsburgh, PA 15227",30YEARSIN BUSINESS
https://www.yellowpages.com//pittsburgh-pa/mip/a-party-place-rentals-1759434?lid=1002106200275,A Party Place Rentals,(412) 353-3198,2326 Babcock Blvd,"Pittsburgh, PA 15237",58YEARSIN BUSINESS
https://www.yellowpages.com//pittsburgh-pa/mip/steel-city-glass-15858423?lid=1001780214183,Steel City Glass,(412) 376-8880,5401 Butler St,"Pittsburgh, PA 15201",37YEARSIN BUSINESS
https://www.yellowpages.com//pittsburgh-pa/mip/community-glass-service-inc-2749817?lid=1002099374621,Community Glass Service INC,(412) 653-0656,5921 Brownsville Rd,"Pittsburgh, PA 15236",53YEARSIN BUSINESS
https://www.yellowpages.com//pittsburgh-pa/mip/kitchen-distributors-of-the-north-hills-21724259?lid=1000439509741,Kitchen Distributors of the North Hills,(412) 367-2080,8164 Perry Hwy,"Pittsburgh, PA 15237",46YEARSIN BUSINESS
https://www.yellowpages.com//pittsburgh-pa/mip/dfw-furniture-462992154,DFW Furniture,(412) 714-4047,810 Clairton Blvd,"Pittsburgh, PA 15236",77YEARSIN BUSINESS
https://www.yellowpages.com//pittsburgh-pa/mip/stickley-audi-company-1528735,Stickley Audi & Company,(412) 369-4577,1010 Ross Park Mall Dr,"Pittsburgh, PA 15237",122YEARSIN BUSINESS
https://www.yellowpages.com//pittsburgh-pa/mip/room-concepts-7255586,Room Concepts,(412) 881-4300,4465 Clairton Blvd,"Pittsburgh, PA 15236",65YEARSIN BUSINESS
https://www.yellowpages.com//pittsburgh-pa/mip/roomful-express-furniture-473070511,Roomful Express Furniture,(412) 369-0460,2250 Roswell Dr,"Pittsburgh, PA 15205",64YEARSIN BUSINESS
https://www.yellowpages.com//pittsburgh-pa/mip/levin-furniture-590582,Levin Furniture,(412) 249-3100,400 Chauvet Dr,"Pittsburgh, PA 15275",102YEARSIN BUSINESS
https://www.yellowpages.com//pittsburgh-pa/mip/value-city-furniture-458016931,Value City Furniture,(412) 653-7450,451 Clairton Blvd,"Pittsburgh, PA 15236",74YEARSIN BUSINESS
https://www.yellowpages.com//pittsburgh-pa/mip/arhaus-furniture-2245556,Arhaus Furniture,(412) 362-7005,235 S Highland Ave,"Pittsburgh, PA 15206",46YEARSIN BUSINESS
https://www.yellowpages.com//pittsburgh-pa/mip/bradley-michaels-furniture-8540489,Bradley Michaels Furniture,(412) 655-2999,22 Old Clairton Rd,"Pittsburgh, PA 15236",21YEARSIN BUSINESS
https://www.yellowpages.com//pittsburgh-pa/mip/todays-home-inc-4970784,Today's Home Inc.,(412) 343-0505,1840 Greentree Road,"Pittsburgh, PA 15220",69YEARSIN BUSINESS
https://www.yellowpages.com//pittsburgh-pa/mip/designer-furniture-outlet-5444895,Designer Furniture Outlet,(412) 444-0506,1840 Greentree Rd,"Pittsburgh, PA 15220",35YEARSIN BUSINESS
https://www.yellowpages.com//pittsburgh-pa/mip/old-allegheny-shoppe-6616033,Old Allegheny Shoppe,(412) 881-6969,4755 Clairton Blvd,"Pittsburgh, PA 15236",47YEARSIN BUSINESS
https://www.yellowpages.com//pittsburgh-pa/mip/weisshouse-16401094,Weisshouse,(412) 441-8888,324 S Highland Ave,"Pittsburgh, PA 15206",74YEARSIN BUSINESS
https://www.yellowpages.com//pittsburgh-pa/mip/american-freight-furniture-mattress-appliance-8074510,"American Freight Furniture, Mattress, Appliance",(412) 241-3511,503 Rodi Rd,"Pittsburgh, PA 15235",29YEARSIN BUSINESS
https://www.yellowpages.com//pittsburgh-pa/mip/artifacts-10495342,Artifacts,(412) 921-6544,110 S Main St,"Pittsburgh, PA 15220",17YEARSIN BUSINESS
https://www.yellowpages.com//pittsburgh-pa/mip/crate-barrel-462420447,Crate & Barrel,(412) 630-8001,1000 Ross Park Mall Dr Ste 32,"Pittsburgh, PA 15237",60YEARSIN BUSINESS
https://www.yellowpages.com//pittsburgh-pa/mip/la-z-boy-524057756,La-Z-Boy,(412) 788-5302,100 Quinn Dr,"Pittsburgh, PA 15275",95YEARSIN BUSINESS
https://www.yellowpages.com//pittsburgh-pa/mip/levin-furniture-523913739,Levin Furniture,(412) 655-0700,292 Curry Hollow Rd,"Pittsburgh, PA 15236",102YEARSIN BUSINESS
https://www.yellowpages.com//pittsburgh-pa/mip/second-chance-home-furnishing-496811261,Second chance  home Furnishing,(412) 361-1312,226 shady ave,"Pittsburgh, PA 15206",8YEARSIN BUSINESS
https://www.yellowpages.com//pittsburgh-pa/mip/office-furniture-warehouse-18606397,Office Furniture Warehouse,(412) 331-6711,230 Rodi Rd,"Pittsburgh, PA 15235",24YEARSIN BUSINESS
https://www.yellowpages.com//pittsburgh-pa/mip/ashley-homestore-545662920,Ashley HomeStore,(412) 353-3340,7215 Mcknight Rd,"Pittsburgh, PA 15237",4YEARSIN BUSINESS
https://www.yellowpages.com//pittsburgh-pa/mip/bobs-discount-furniture-and-mattress-store-543772617,Bobâ€™s Discount Furniture and Mattress Store,(412) 330-1906,7377 Mcknight Rd,"Pittsburgh, PA 15237",31YEARSIN BUSINESS
https://www.yellowpages.com//pittsburgh-pa/mip/west-elm-503071551,West Elm,(412) 661-0986,110 Bakery Square Blvd,"Pittsburgh, PA 15206",8YEARSIN BUSINESS
https://www.yellowpages.com//pittsburgh-pa/mip/rh-pittsburgh-the-gallery-at-ross-park-564017998,RH Pittsburgh | The Gallery at Ross Park,(412) 563-5909,1000 Ross Park Mall Dr Spc H01A-10,"Pittsburgh, PA 15237",42YEARSIN BUSINESS
https://www.yellowpages.com//pittsburgh-pa/mip/todays-home-inc-8260544,Today's Home Inc.,(412) 364-4760,7601 Mcknight Rd,"Pittsburgh, PA 15237",69YEARSIN BUSINESS
https://www.yellowpages.com//pittsburgh-pa/mip/lovesac-456612727,Lovesac,(412) 831-1440,301 S Hills Vlg,"Pittsburgh, PA 15241",27YEARSIN BUSINESS
https://www.yellowpages.com//pittsburgh-pa/mip/technogel-us-548448737,Technogel Us,(412) 224-2004,925 Liberty Ave Fl 9,"Pittsburgh, PA 15222",32YEARSIN BUSINESS
https://www.yellowpages.com//pittsburgh-pa/mip/perrotte-furniture-service-28206353,Perrotte Furniture Service,(412) 471-8144,2124 Penn Ave,"Pittsburgh, PA 15222",45YEARSIN BUSINESS
https://www.yellowpages.com//pittsburgh-pa/mip/dicor-furniture-492322269,Dicor Furniture,(412) 992-6698,2116 Lautner St,"Pittsburgh, PA 15212",10YEARSIN BUSINESS
https://www.yellowpages.com//pittsburgh-pa/mip/wholesale-furniture-direct-470042753,Wholesale Furniture Direct,(412) 922-6022,1010 Greentree Rd,"Pittsburgh, PA 15220",12YEARSIN BUSINESS
https://www.yellowpages.com//pittsburgh-pa/mip/mts-enterprises-inc-455471507,MTS Enterprises Inc,(412) 683-2458,1453 Squirrel Hill Ave,"Pittsburgh, PA 15217",67YEARSIN BUSINESS
https://www.yellowpages.com//pittsburgh-pa/mip/amish-yard-llc-506485722,"Amish Yard, LLC",(412) 943-7163,3316 Saw Mill Run Blvd,"Pittsburgh, PA 15227",15YEARSIN BUSINESS
https://www.yellowpages.com//pittsburgh-pa/mip/two-brothers-furniture-store-520680439,Two Brothers Furniture Store,(412) 244-3190,1635 S Braddock Ave,"Pittsburgh, PA 15218",16YEARSIN BUSINESS
https://www.yellowpages.com//pittsburgh-pa/mip/weisshouse-27851473,Weisshouse,(412) 271-0103,1929 Mccague St,"Pittsburgh, PA 15218",7YEARSIN BUSINESS
https://www.yellowpages.com//pittsburgh-pa/mip/sullivan-design-equipment-inc-2363422,Sullivan Design-Equipment Inc,(412) 734-0399,1400 Center Ave,"Pittsburgh, PA 15229",26YEARSIN BUSINESS
https://www.yellowpages.com//pittsburgh-pa/mip/levin-furniture-537132855,Levin Furniture,(412) 835-5058,1600 Washington Rd,"Pittsburgh, PA 15228",102YEARSIN BUSINESS
https://www.yellowpages.com//pittsburgh-pa/mip/name-brand-furniture-476794352,Name Brand Furniture,(412) 653-7440,2 Old Clairton Rd,"Pittsburgh, PA 15236",46YEARSIN BUSINESS
https://www.yellowpages.com//pittsburgh-pa/mip/amish-accents-543822798,Amish Accents,(724) 387-1112,2352 Golden Mile Hwy,"Pittsburgh, PA 15239",74YEARSIN BUSINESS
https://www.yellowpages.com//pittsburgh-pa/mip/amish-accents-543822798,Amish Accents,(724) 387-1112,2352 Golden Mile Hwy,"Pittsburgh, PA 15239",74YEARSIN BUSINESS
https://www.yellowpages.com//pittsburgh-pa/mip/furniture-company-456278767,Furniture Company,(412) 881-7124,3330 Saw Mill Run Blvd,"Pittsburgh, PA 15227",12YEARSIN BUSINESS
https://www.yellowpages.com//pittsburgh-pa/mip/country-barns-of-pittsburgh-6458391,Country Barns of Pittsburgh,(412) 221-1630,1601 Bower Hill Rd,"Pittsburgh, PA 15241",21YEARSIN BUSINESS
https://www.yellowpages.com//pittsburgh-pa/mip/atlantic-bedding-and-furniture-454618925,Atlantic Bedding and Furniture,(412) 904-3744,2400 Josephine St,"Pittsburgh, PA 15203",12YEARSIN BUSINESS
https://www.yellowpages.com//pittsburgh-pa/mip/lovesac-451964466,Lovesac,(412) 366-7227,1000 Ross Park Mall Dr,"Pittsburgh, PA 15237",27YEARSIN BUSINESS
https://www.yellowpages.com//pittsburgh-pa/mip/eway-furniture-89004,Eway Furniture,(412) 621-1289,920 Bellefonte St,"Pittsburgh, PA 15232",15YEARSIN BUSINESS
https://www.yellowpages.com//pittsburgh-pa/mip/pittsburgh-mobility-scooters-and-lift-chairs-461900181,Pittsburgh Mobility Scooters and Lift Chairs,(412) 346-2026,3945 Forbes Ave,"Pittsburgh, PA 15213",20YEARSIN BUSINESS
https://www.yellowpages.com//pittsburgh-pa/mip/meyers-furniture-rep-28408797,Meyer's Furniture Rep,(412) 221-8204,1419 Old Meadow Rd,"Pittsburgh, PA 15241",31YEARSIN BUSINESS
https://www.yellowpages.com//pittsburgh-pa/mip/perlora-leather-5906817,Perlora Leather,(412) 434-7425,2837 Smallman St,"Pittsburgh, PA 15222",28YEARSIN BUSINESS
https://www.yellowpages.com//pittsburgh-pa/mip/homegoods-466956027,HomeGoods,(412) 859-0802,2000 Park Manor Blvd,"Pittsburgh, PA 15205",11YEARSIN BUSINESS
https://www.yellowpages.com//pittsburgh-pa/mip/designer-furniture-outlet-472847822,Designer Furniture Outlet,(412) 364-7158,"7601 Mcknight Rd, 2nd Floor","Pittsburgh, PA 15237",23YEARSIN BUSINESS
https://www.yellowpages.com//pittsburgh-pa/mip/carolina-bedding-furniture-456204338,Carolina Bedding & Furniture,(412) 657-0520,1002 Greentree Rd,"Pittsburgh, PA 15220",10YEARSIN BUSINESS
https://www.yellowpages.com//pittsburgh-pa/mip/ethan-allen-462970872,Ethan Allen,(412) 835-4174,1680 Washington Rd,"Pittsburgh, PA 15241",11YEARSIN BUSINESS
https://www.yellowpages.com//pittsburgh-pa/mip/pottery-barn-451393982,Pottery Barn,(412) 635-7534,1000 Ross Park Mall Dr Ste C03c,"Pittsburgh, PA 15237",25YEARSIN BUSINESS
https://www.yellowpages.com//pittsburgh-pa/mip/hot-haute-hot-inc-9566382,Hot Haute Hot Inc,(412) 338-2323,2124 Penn Ave,"Pittsburgh, PA 15222",23YEARSIN BUSINESS
https://www.yellowpages.com//pittsburgh-pa/mip/tuesday-morning-3421862,Tuesday Morning,(412) 650-5758,641 Clairton Blvd,"Pittsburgh, PA 15236",48YEARSIN BUSINESS
https://www.yellowpages.com//pittsburgh-pa/mip/cort-furniture-rental-clearance-center-473554247,CORT Furniture Rental & Clearance Center,(412) 369-8888,7903 McKnight Rd,"Pittsburgh, PA 15237",51YEARSIN BUSINESS
https://www.yellowpages.com//pittsburgh-pa/mip/mattress-warehouse-of-pittsburgh-mcknight-road-530063909,Mattress Warehouse of Pittsburgh - McKnight Road,(412) 550-4478,7809 Mcknight Rd,"Pittsburgh, PA 15237",33YEARSIN BUSINESS
https://www.yellowpages.com//pittsburgh-pa/mip/mattress-firm-480966635,Mattress Firm,(412) 367-1289,7975 Mcknight Rd,"Pittsburgh, PA 15237",21YEARSIN BUSINESS
https://www.yellowpages.com//pittsburgh-pa/mip/bobs-discount-furniture-506362314,Bob's Discount Furniture,(412) 446-4494,162 Quinn Dr,"Pittsburgh, PA 15275",31YEARSIN BUSINESS
https://www.yellowpages.com//pittsburgh-pa/mip/levin-mattress-504011024,Levin Mattress,(412) 622-0106,5438 Baum Blvd,"Pittsburgh, PA 15232",102YEARSIN BUSINESS
https://www.yellowpages.com//pittsburgh-pa/mip/rex-glass-mirror-company-inc-2394835,Rex Glass & Mirror Company Inc,(412) 921-7777,108 Kisow Dr,"Pittsburgh, PA 15205",64YEARSIN BUSINESS
https://www.yellowpages.com//pittsburgh-pa/mip/kirklands-459219596,Kirkland's,(412) 747-7572,1990 Park Manor Blvd,"Pittsburgh, PA 15205",56YEARSIN BUSINESS
https://www.yellowpages.com//pittsburgh-pa/mip/tuesday-morning-16625545,Tuesday Morning,(412) 362-5320,6401 Penn Ave,"Pittsburgh, PA 15206",48YEARSIN BUSINESS
https://www.yellowpages.com//pittsburgh-pa/mip/brookstone-14179692,Brookstone,(412) 369-4455,1000 Ross Park Mall Dr,"Pittsburgh, PA 15237",57YEARSIN BUSINESS
https://www.yellowpages.com//pittsburgh-pa/mip/bridges-boroughs-furniture-532086160,Bridges & Boroughs Furniture,(412) 321-8400,1200 Chateau St,"Pittsburgh, PA 15233",53YEARSIN BUSINESS
https://www.yellowpages.com//pittsburgh-pa/mip/mattress-firm-472622873,Mattress Firm,(412) 605-0161,55 38th St,"Pittsburgh, PA 15201",10YEARSIN BUSINESS
https://www.yellowpages.com//pittsburgh-pa/mip/mattress-firm-496810330,Mattress Firm,(412) 665-0790,6401 Penn Ave,"Pittsburgh, PA 15206",36YEARSIN BUSINESS
https://www.yellowpages.com//pittsburgh-pa/mip/waterbed-services-1615725,Waterbed Services,(412) 885-5555,3404 Saw Mill Run Blvd,"Pittsburgh, PA 15227",30YEARSIN BUSINESS
https://www.yellowpages.com//pittsburgh-pa/mip/mattress-firm-474572054,Mattress Firm,(412) 366-0709,4868 Mcknight Rd,"Pittsburgh, PA 15237",21YEARSIN BUSINESS
https://www.yellowpages.com//pittsburgh-pa/mip/todays-tiffany-home-decor-and-more-4380635,Today's Tiffany Home Decor And More,(412) 561-2211,1500 Washington Rd Ste 2802,"Pittsburgh, PA 15228",29YEARSIN BUSINESS
https://www.yellowpages.com//pittsburgh-pa/mip/mattress-firm-495391851,Mattress Firm,(412) 781-1094,1100 Freeport Rd,"Pittsburgh, PA 15238",21YEARSIN BUSINESS
https://www.yellowpages.com//pittsburgh-pa/mip/mattress-firm-475391171,Mattress Firm,(412) 788-1240,1340 Settlers Ridge Center Dr,"Pittsburgh, PA 15205",21YEARSIN BUSINESS
https://www.yellowpages.com//pittsburgh-pa/mip/mattress-firm-504987359,Mattress Firm,(412) 367-4787,7803 Mcknight Rd,"Pittsburgh, PA 15237",21YEARSIN BUSINESS
https://www.yellowpages.com//pittsburgh-pa/mip/mattress-firm-504996012,Mattress Firm,(412) 788-4815,6565 Steubenville Pike,"Pittsburgh, PA 15205",21YEARSIN BUSINESS
https://www.yellowpages.com//pittsburgh-pa/mip/home-decor-outlets-pittsburgh-17333130,Home Decor Outlets - Pittsburgh,(412) 281-9730,1601 Liberty Ave,"Pittsburgh, PA 15222",29YEARSIN BUSINESS
https://www.yellowpages.com//pittsburgh-pa/mip/artistry-at-home-502933321,Artistry at Home,(412) 765-2522,2313 Smallman St,"Pittsburgh, PA 15222",30YEARSIN BUSINESS
https://www.yellowpages.com//pittsburgh-pa/mip/pottery-barn-540225237,Pottery Barn,(412) 571-5460,1500 Washington Rd Ste 1105,"Pittsburgh, PA 15228",5YEARSIN BUSINESS
https://www.yellowpages.com//pittsburgh-pa/mip/tuesday-morning-468046802,Tuesday Morning,(412) 825-3262,3430 William Penn Hwy,"Pittsburgh, PA 15235",48YEARSIN BUSINESS
https://www.yellowpages.com//pittsburgh-pa/mip/pittsburgh-furniture-company-472296370,Pittsburgh Furniture Company,(412) 687-2965,4312 Butler St,"Pittsburgh, PA 15201",10YEARSIN BUSINESS
https://www.yellowpages.com//pittsburgh-pa/mip/mattress-firm-504923818,Mattress Firm,(412) 854-4330,1606 Washington Rd,"Pittsburgh, PA 15228",21YEARSIN BUSINESS
https://www.yellowpages.com//pittsburgh-pa/mip/mattress-firm-496672237,Mattress Firm,(412) 835-3594,1680 Washington Rd Ste J,"Pittsburgh, PA 15241",36YEARSIN BUSINESS
https://www.yellowpages.com//pittsburgh-pa/mip/mattress-firm-497638895,Mattress Firm,(412) 787-5191,221 Summit Park Dr,"Pittsburgh, PA 15275",21YEARSIN BUSINESS
https://www.yellowpages.com//pittsburgh-pa/mip/chianelli-design-462917461,Chianelli Design,(412) 621-3900,5440 Centre Ave,"Pittsburgh, PA 15232",93YEARSIN BUSINESS
https://www.yellowpages.com//pittsburgh-pa/mip/evelyn-james-interiors-5414056,Evelyn James Interiors,(412) 521-5220,5870 Forbes Ave,"Pittsburgh, PA 15217",18YEARSIN BUSINESS
https://www.yellowpages.com//pittsburgh-pa/mip/davin-interior-design-2890895,Davin Interior Design,(412) 221-5770,671 Washington Rd,"Pittsburgh, PA 15228",19YEARSIN BUSINESS
https://www.yellowpages.com//pittsburgh-pa/mip/apple-furniture-rental-472931411,Apple Furniture Rental,(412) 781-0202,1346 Main St,"Pittsburgh, PA 15215",30YEARSIN BUSINESS
https://www.yellowpages.com//pittsburgh-pa/mip/urban-tree-505950784,Urban Tree,(412) 243-1312,7800 Susquehanna St,"Pittsburgh, PA 15208",6YEARSIN BUSINESS
https://www.yellowpages.com//pittsburgh-pa/mip/polished-picking-521792769,Polished Picking,(412) 207-2123,9 Dewalt Ave,"Pittsburgh, PA 15227",7YEARSIN BUSINESS
