Store URL,Name,Phone,Street_Address,Locality,Business_years
https://www.yellowpages.com//seattle-wa/mip/joslin-upholstery-interiors-462279867?lid=1002108847968,Joslin Upholstery & Interiors,(206) 339-0385,10439 Holman Rd N,"Seattle, WA 98133",17YEARSIN BUSINESS
https://www.yellowpages.com//seattle-wa/mip/tom-mcintosh-glass-and-glazing-6096246?lid=1000439680441,Tom McIntosh Glass and Glazing,(206) 782-5178,5100 14th Ave NW,"Seattle, WA 98107",39YEARSIN BUSINESS
https://www.yellowpages.com//seattle-wa/mip/richs-custom-upholstery-22633304?lid=1000767634174,Rich's Custom Upholstery,(206) 392-0030,10003 Aurora Ave N,"Seattle, WA 98133",47YEARSIN BUSINESS
https://www.yellowpages.com//seattle-wa/mip/durham-upholstery-530019375?lid=1000439710708,Durham Upholstery,(206) 243-3159,1421 S 192nd St Suite 1,"Seattle, WA 98148",66YEARSIN BUSINESS
https://www.yellowpages.com//seattle-wa/mip/bedrooms-more-16253153,Bedrooms & More,(206) 633-4494,300 NE 45th St,"Seattle, WA 98105",50YEARSIN BUSINESS
https://www.yellowpages.com//seattle-wa/mip/ballard-home-comforts-7411761,Ballard Home Comforts,(206) 781-1040,5334 Ballard Ave NW,"Seattle, WA 98107",23YEARSIN BUSINESS
https://www.yellowpages.com//seattle-wa/mip/alchemy-collections-4823861,Alchemy Collections,(206) 448-3309,2029 2nd Ave,"Seattle, WA 98121",18YEARSIN BUSINESS
https://www.yellowpages.com//seattle-wa/mip/ashley-homestore-8926586,Ashley HomeStore,(206) 575-1451,1201 Andover Park E,"Seattle, WA 98188",30YEARSIN BUSINESS
https://www.yellowpages.com//seattle-wa/mip/don-willis-furniture-1575999,Don Willis Furniture,(206) 782-3333,1712 NW Market St,"Seattle, WA 98107",74YEARSIN BUSINESS
https://www.yellowpages.com//seattle-wa/mip/robert-madsen-design-inc-7619866,Robert Madsen Design Inc,(206) 588-0090,5448 Shilshole Ave NW,"Seattle, WA 98107",26YEARSIN BUSINESS
https://www.yellowpages.com//seattle-wa/mip/west-elm-466898734,West Elm,(206) 467-5798,2201 Westlake Ave Ste 100,"Seattle, WA 98121",11YEARSIN BUSINESS
https://www.yellowpages.com//seattle-wa/mip/crate-barrel-452668,Crate & Barrel,(206) 937-9939,2680 NE 49th St,"Seattle, WA 98105",60YEARSIN BUSINESS
https://www.yellowpages.com//seattle-wa/mip/room-board-472823090,Room & Board,(800) 952-8344,2675 NE University Village St,"Seattle, WA 98105",10YEARSIN BUSINESS
https://www.yellowpages.com//seattle-wa/mip/kasala-79194,Kasala,(206) 623-7795,1505 Western Ave,"Seattle, WA 98101",35YEARSIN BUSINESS
https://www.yellowpages.com//seattle-wa/mip/sleepers-in-seattle-4142314,Sleepers in Seattle,(888) 770-7632,4741 California Ave SW,"Seattle, WA 98116",31YEARSIN BUSINESS
https://www.yellowpages.com//seattle-wa/mip/camerich-by-alchemy-collections-10848472,Camerich by Alchemy Collections,(206) 682-7575,909 Western Ave,"Seattle, WA 98104",17YEARSIN BUSINESS
https://www.yellowpages.com//seattle-wa/mip/modern-design-sofas-530653707,Modern Design Sofas,(206) 652-8374,55 University St,"Seattle, WA 98101",15YEARSIN BUSINESS
https://www.yellowpages.com//seattle-wa/mip/urban-hardwoods-462242789,Urban Hardwoods,(206) 443-8099,2101 1st Ave,"Seattle, WA 98121",11YEARSIN BUSINESS
https://www.yellowpages.com//seattle-wa/mip/curran-catalog-1641565,Curran Catalog,(206) 441-2721,1932 1st Ave # 905,"Seattle, WA 98101",27YEARSIN BUSINESS
https://www.yellowpages.com//seattle-wa/mip/bang-knudsen-inc-465955012,Bang-Knudsen Inc,(206) 767-6970,542 1st Ave S Ste 500,"Seattle, WA 98104",15YEARSIN BUSINESS
https://www.yellowpages.com//seattle-wa/mip/tirto-furniture-497066452,Tirto Furniture,(206) 322-0597,1908 E Mercer St,"Seattle, WA 98112",9YEARSIN BUSINESS
https://www.yellowpages.com//seattle-wa/mip/kravet-inc-5123479,Kravet Inc,(206) 762-9370,5701 6th Ave S Ste 126,"Seattle, WA 98108",15YEARSIN BUSINESS
https://www.yellowpages.com//seattle-wa/mip/rh-seattle-the-gallery-at-university-village-563994099,RH Seattle | The Gallery at University Village,(206) 522-2775,4645 26th Ave NE,"Seattle, WA 98105",42YEARSIN BUSINESS
https://www.yellowpages.com//seattle-wa/mip/cb2-548387488,CB2,(206) 462-4400,2660 NE 49th St,"Seattle, WA 98105",60YEARSIN BUSINESS
https://www.yellowpages.com//seattle-wa/mip/dania-furniture-469732826,Dania Furniture,(206) 575-1918,1251 Andover Park W,"Seattle, WA 98188",58YEARSIN BUSINESS
https://www.yellowpages.com//seattle-wa/mip/big-leaf-manufacturing-465968058,Big Leaf Manufacturing,(206) 768-2811,1128 Poplar Pl S,"Seattle, WA 98144",27YEARSIN BUSINESS
https://www.yellowpages.com//seattle-wa/mip/urbancase-532167045,Urbancase,(206) 289-0451,3220 1st Ave S Ste 400,"Seattle, WA 98134",13YEARSIN BUSINESS
https://www.yellowpages.com//seattle-wa/mip/creoworks-523620055,Creoworks,(206) 922-8007,4101 W Marginal Way SW Ste B7,"Seattle, WA 98106",9YEARSIN BUSINESS
https://www.yellowpages.com//seattle-wa/mip/seattle-innovative-kustom-wrks-473528527,Seattle Innovative Kustom Wrks,(206) 601-1997,4544 Union Bay Pl NE,"Seattle, WA 98105",13YEARSIN BUSINESS
https://www.yellowpages.com//seattle-wa/mip/vpi-furniture-consultants-13348267,VPI Furniture Consultants,(206) 763-6601,2611 Western Ave,"Seattle, WA 98121",23YEARSIN BUSINESS
https://www.yellowpages.com//seattle-wa/mip/seva-507436025,Seva,(206) 323-9920,1002 Western Ave,"Seattle, WA 98104",24YEARSIN BUSINESS
https://www.yellowpages.com//seattle-wa/mip/carrie-hayden-studio-collective-showroom-505267877,Carrie Hayden Studio Collective Showroom,(206) 448-9405,500 E Pike St Suite 500c,"Seattle, WA 98122",7YEARSIN BUSINESS
https://www.yellowpages.com//seattle-wa/mip/vpi-548358966,Vpi,(206) 763-6601,900 1st Ave S Ste 301,"Seattle, WA 98134",23YEARSIN BUSINESS
https://www.yellowpages.com//seattle-wa/mip/rerunroom-525185827,ReRunRoom,(425) 954-7533,504 E Denny Way Apt 2,"Seattle, WA 98122",10YEARSIN BUSINESS
https://www.yellowpages.com//seattle-wa/mip/n-w-furniture-resource-460045245,N W Furniture Resource,(206) 768-9900,2606 2nd Ave Ste 325,"Seattle, WA 98121",12YEARSIN BUSINESS
https://www.yellowpages.com//seattle-wa/mip/seattle-custom-shoji-23101723,Seattle Custom Shoji,(206) 443-2028,3028 Western Ave Apt 204,"Seattle, WA 98121",18YEARSIN BUSINESS
https://www.yellowpages.com//seattle-wa/mip/kasala-furniture-505000540,Kasala Furniture,(206) 340-4112,1946 Occidental Ave S,"Seattle, WA 98134",35YEARSIN BUSINESS
https://www.yellowpages.com//seattle-wa/mip/m-culbert-home-furnishings-472111908,M Culbert Home Furnishings,(206) 623-1306,241 S Lander St,"Seattle, WA 98134",11YEARSIN BUSINESS
https://www.yellowpages.com//seattle-wa/mip/maison-luxe-481238701,Maison Luxe,(206) 405-2828,2806 E Madison St,"Seattle, WA 98112",17YEARSIN BUSINESS
https://www.yellowpages.com//seattle-wa/mip/codor-design-560593953,Codor Design,(206) 265-9836,4660 E Marginal Way S Ste 6,"Seattle, WA 98134",10YEARSIN BUSINESS
https://www.yellowpages.com//seattle-wa/mip/rbi-furniture-21496093,RBI Furniture,(206) 276-3219,3219 Cascadia Ave S,"Seattle, WA 98144",19YEARSIN BUSINESS
https://www.yellowpages.com//seattle-wa/mip/banana-furniture-store-inc-561002612,Banana Furniture Store Inc,(206) 466-9531,5021 Colorado Ave S,"Seattle, WA 98134",2YEARSIN BUSINESS
https://www.yellowpages.com//seattle-wa/mip/bettencourt-group-468256456,Bettencourt Group,(206) 762-2240,501 S Lucile St Ste 102,"Seattle, WA 98108",26YEARSIN BUSINESS
https://www.yellowpages.com//seattle-wa/mip/elliotts-designer-showroom-462238591,Elliott's Designer Showroom,(206) 764-9352,5701 6th Ave S,"Seattle, WA 98108",55YEARSIN BUSINESS
https://www.yellowpages.com//seattle-wa/mip/ebanista-inc-465077156,Ebanista Inc,(206) 762-5242,5701 6th Ave S Ste 204,"Seattle, WA 98108",18YEARSIN BUSINESS
https://www.yellowpages.com//seattle-wa/mip/susan-mills-associates-7525468,Susan Mills & Associates,(206) 682-6388,5701 6th Ave S Ste 200,"Seattle, WA 98108",33YEARSIN BUSINESS
https://www.yellowpages.com//seattle-wa/mip/leflar-ltd-9919445,Leflar Ltd,(206) 762-5315,5701 6th Ave S Ste 210,"Seattle, WA 98108",34YEARSIN BUSINESS
https://www.yellowpages.com//seattle-wa/mip/palu-ltd-480900213,Palu Ltd,(206) 352-2252,801 NW 42nd St Ste 212,"Seattle, WA 98107",17YEARSIN BUSINESS
https://www.yellowpages.com//seattle-wa/mip/saver-furniture-531449855,Saver Furniture,(206) 721-0440,4860 Rainier Ave S,"Seattle, WA 98118",32YEARSIN BUSINESS
https://www.yellowpages.com//seattle-wa/mip/b-low-inc-2725579,B Low Inc,(206) 932-5979,4538 California Ave SW,"Seattle, WA 98116",24YEARSIN BUSINESS
https://www.yellowpages.com//seattle-wa/mip/analytic-couch-co-463296720,Analytic Couch Co,(206) 855-6888,5014 19th Ave NE,"Seattle, WA 98105",17YEARSIN BUSINESS
https://www.yellowpages.com//seattle-wa/mip/the-land-of-nod-8216118,The Land of Nod,(206) 527-9900,2660 NE 49th St,"Seattle, WA 98105",18YEARSIN BUSINESS
https://www.yellowpages.com//seattle-wa/mip/miller-c-m-finishing-design-7635643,Miller C M Finishing & Design,(206) 782-8291,831 NW 49th St,"Seattle, WA 98107",33YEARSIN BUSINESS
https://www.yellowpages.com//seattle-wa/mip/rosanna-imports-warehouse-463273417,Rosanna Imports Warehouse,(206) 264-7882,6755 E Marginal Way S,"Seattle, WA 98108",26YEARSIN BUSINESS
https://www.yellowpages.com//seattle-wa/mip/rosanna-retail-inc-503410057,Rosanna Retail Inc,(206) 204-0588,6755 E Marginal Way S,"Seattle, WA 98108",40YEARSIN BUSINESS
https://www.yellowpages.com//seattle-wa/mip/david-smith-and-company-antiques-481193517,David Smith And Company Antiques,(206) 223-1598,4552 51st Pl SW,"Seattle, WA 98116",28YEARSIN BUSINESS
https://www.yellowpages.com//seattle-wa/mip/stephen-hultberg-furniture-mkr-5438906,Stephen Hultberg Furniture MKR,(206) 625-0231,5800 Rainier Ave S,"Seattle, WA 98118",33YEARSIN BUSINESS
https://www.yellowpages.com//seattle-wa/mip/mark-allan-malone-furniture-26534319,Mark Allan Malone Furniture,(206) 524-1073,3823 NE 95th St,"Seattle, WA 98115",15YEARSIN BUSINESS
https://www.yellowpages.com//seattle-wa/mip/arkadia-woodworking-526707074,Arkadia Woodworking,(206) 763-4219,8516 S 114th St,"Seattle, WA 98178",31YEARSIN BUSINESS
https://www.yellowpages.com//seattle-wa/mip/better-bilt-furniture-manufacturing-company-2066266,Better Bilt Furniture Manufacturing Company,(206) 282-3763,22 Etruria St,"Seattle, WA 98109",76YEARSIN BUSINESS
https://www.yellowpages.com//seattle-wa/mip/retrofit-home-6892112,Retrofit Home,(206) 568-4663,1103 E Pike St,"Seattle, WA 98122",24YEARSIN BUSINESS
https://www.yellowpages.com//seattle-wa/mip/design-within-reach-3616615,Design Within Reach,(206) 443-9900,1918 1st Ave,"Seattle, WA 98101",7YEARSIN BUSINESS
https://www.yellowpages.com//seattle-wa/mip/trammell-gagne-4086856,Trammell-Gagne,(206) 762-1511,5701 6th Ave S Ste 105,"Seattle, WA 98108",15YEARSIN BUSINESS
https://www.yellowpages.com//seattle-wa/mip/furniture-by-foss-3312759,Furniture By Foss,(206) 783-3626,811 NW 47th St,"Seattle, WA 98107",26YEARSIN BUSINESS
https://www.yellowpages.com//seattle-wa/mip/v-s-furniture-465963701,V S Furniture,(206) 722-4848,6032 Martin Luther King Jr Way S,"Seattle, WA 98118",11YEARSIN BUSINESS
https://www.yellowpages.com//seattle-wa/mip/sofa-savvy-474600020,Sofa Savvy,(206) 660-4465,3033 27th Ave W,"Seattle, WA 98199",10YEARSIN BUSINESS
https://www.yellowpages.com//seattle-wa/mip/saver-furniture-455945894,Saver Furniture,(206) 723-5966,4208 Rainier Ave S,"Seattle, WA 98118",28YEARSIN BUSINESS
https://www.yellowpages.com//seattle-wa/mip/couch-472521736,Couch,(206) 633-6108,5304 Ballard Ave NW,"Seattle, WA 98107",14YEARSIN BUSINESS
https://www.yellowpages.com//seattle-wa/mip/k-d-and-mds-seattle-468824552,K & D and MDs Seattle,(206) 484-5783,915 Western Ave,"Seattle, WA 98104",12YEARSIN BUSINESS
https://www.yellowpages.com//seattle-wa/mip/nw-gallery-of-fine-wdwkg-466162338,NW Gallery of Fine Wdwkg,(206) 382-1965,101 S Jackson St,"Seattle, WA 98104",42YEARSIN BUSINESS
https://www.yellowpages.com//seattle-wa/mip/hunt-gather-19590395,Hunt & Gather,(206) 790-2061,2427 E Mcgraw St,"Seattle, WA 98112",15YEARSIN BUSINESS
https://www.yellowpages.com//seattle-wa/mip/roche-bobois-11041448,Roche Bobois,(206) 332-9744,1922 4th Ave,"Seattle, WA 98101",36YEARSIN BUSINESS
https://www.yellowpages.com//seattle-wa/mip/sams-club-462264784,Sam's Club,(206) 362-6700,13550 Aurora Ave N,"Seattle, WA 98133",27YEARSIN BUSINESS
https://www.yellowpages.com//seattle-wa/mip/seva-8472593,Seva,(206) 323-9920,900 Lenora St Ste 116,"Seattle, WA 98121",24YEARSIN BUSINESS
https://www.yellowpages.com//seattle-wa/mip/duckys-office-furniture-15621729,Ducky's Office Furniture,(206) 623-7777,24 S Idaho St,"Seattle, WA 98134",38YEARSIN BUSINESS
https://www.yellowpages.com//seattle-wa/mip/mc-kinnon-furniture-co-retail-13604438,Mc Kinnon Furniture Co Retail,(206) 622-6474,1201 Western Ave Ste 100,"Seattle, WA 98101",33YEARSIN BUSINESS
https://www.yellowpages.com//seattle-wa/mip/futon-factory-14541655,Futon Factory,(206) 528-9977,10001 Aurora Ave N,"Seattle, WA 98133",25YEARSIN BUSINESS
https://www.yellowpages.com//seattle-wa/mip/sodergren-furniture-996272,Sodergren Furniture,(206) 525-7457,9752 Lake Shore Blvd NE,"Seattle, WA 98115",31YEARSIN BUSINESS
https://www.yellowpages.com//seattle-wa/mip/ann-obrien-lcsw-474592465,"Ann O'Brien, LCSW",(206) 588-0539,300 N 41st St,"Seattle, WA 98103",11YEARSIN BUSINESS
https://www.yellowpages.com//seattle-wa/mip/foremost-wholesale-furniture-459525537,Foremost Wholesale Furniture,(206) 767-0507,7736 30th Ave SW,"Seattle, WA 98126",31YEARSIN BUSINESS
https://www.yellowpages.com//seattle-wa/mip/richs-for-the-home-475607903,Rich's For The Home,(425) 251-5707,"17750 W Valley Hwy Tukwila, WA 98188","Seattle, WA 98188",43YEARSIN BUSINESS
https://www.yellowpages.com//seattle-wa/mip/mattress-firm-533582509,Mattress Firm,(206) 464-1513,1900 3rd Ave,"Seattle, WA 98101",37YEARSIN BUSINESS
https://www.yellowpages.com//seattle-wa/mip/demi-lune-483290004,Demi-Lune,(206) 728-5600,2514 4th Ave,"Seattle, WA 98121",9YEARSIN BUSINESS
https://www.yellowpages.com//seattle-wa/mip/chadhaus-465529751,Chadhaus,(206) 782-4287,908 NW 50th St,"Seattle, WA 98107",16YEARSIN BUSINESS
https://www.yellowpages.com//seattle-wa/mip/mattress-firm-468826178,Mattress Firm,(206) 364-1380,551 NE Northgate Way,"Seattle, WA 98125",37YEARSIN BUSINESS
https://www.yellowpages.com//seattle-wa/mip/legacy-group-workspace-530281051,Legacy Group Workspace,(206) 217-0310,608 2nd Ave,"Seattle, WA 98104",23YEARSIN BUSINESS
https://www.yellowpages.com//seattle-wa/mip/cbd-furniture-526031148,CBD Furniture,(206) 623-1929,1015 Western Ave,"Seattle, WA 98104",6YEARSIN BUSINESS
